GPS BIIA-10 (PRN 32)    
1 20959U 90103A   14090.09204836 -.00000025  00000-0  00000+0 0  3186
2 20959  55.0047 210.0071 0000000 349.3016  10.4249  2.00586295170962
GPS BIIA-14 (PRN 26)    
1 22014U 92039A   14090.48080002 -.00000032  00000-0  00000+0 0  1007
2 22014  55.0093 271.0041 0000000  72.7694 344.1815  2.00562219152692
GPS BIIA-21 (PRN 09)    
1 22700U 93042A   14090.32229994 -.00000066  00000-0  00000+0 0  3539
2 22700  55.0084 326.0065 0000000 102.4333 202.7204  2.00562990152030
GPS BIIA-23 (PRN 04)    
1 22877U 93068A   14090.32864317  .00000026  00000-0  00000+0 0  7029
2 22877  55.0021 145.0075 0000000  61.5125  51.7632  2.00558213149680
GPS BIIA-25 (PRN 03)    
1 23833U 96019A   14089.40928888 -.00000010  00000-0  10000-3 0  8695
2 23833  55.0005  87.0049 0000000  78.5319 283.3232  2.00551502131957
GPS BIIA-26 (PRN 10)    
1 23953U 96041A   14089.64070251 -.00000027  00000-0  00000+0 0  3565
2 23953  55.0085 210.0048 0000000  48.5917 230.1062  2.00557808129744
GPS BIIR-2  (PRN 13)    
1 24876U 97035A   14090.04324384 -.00000030  00000-0  00000+0 0  8120
2 24876  55.0087 271.0005 0000000 128.6827  71.9409  2.00571482122282
GPS BIIA-28 (PRN 08)    
1 25030U 97067A   14089.09064917 -.00000065  00000-0  00000+0 0  7716
2 25030  55.0074 326.0007 0000000 201.3307 298.0339  2.00586619120155
GPS BIIR-3  (PRN 11)    
1 25933U 99055A   14090.01376127  .00000025  00000-0  10000-3 0  2434
2 25933  55.0004 145.0050 0000000  72.9585 288.7165  2.00559715106100
GPS BIIR-4  (PRN 20)    
1 26360U 00025A   14090.22355850 -.00000021  00000-0  00000+0 0  3445
2 26360  55.0035 210.0065 0000000  74.6405 352.1361  2.00578686101799
GPS BIIR-5  (PRN 28)    
1 26407U 00040A   14090.32865730 -.00000081  00000-0  00000+0 0  2892
2 26407  55.0087  30.0066 0000000 261.6080 351.9664  2.00564923100474
GPS BIIR-6  (PRN 14)    
1 26605U 00071A   14090.34998677 -.00000032  00000-0  00000+0 0  3005
2 26605  55.0032 271.0065 0000000 246.0569 313.5732  2.00567495 98070
GPS BIIR-7  (PRN 18)    
1 26690U 01004A   14090.43960612 -.00000021  00000-0  00000+0 0  1831
2 26690  55.0081 210.0022 0000000 242.7974 115.7247  2.00561960 96481
GPS BIIR-8  (PRN 16)    
1 27663U 03005A   14089.65589751 -.00000082  00000-0  00000+0 0  6234
2 27663  55.0036  30.0076 0000000   8.0873 233.5739  2.00576803 81823
GPS BIIR-9  (PRN 21)    
1 27704U 03010A   14090.31644946  .00000025  00000-0  00000+0 0  5009
2 27704  55.0029 145.0040 0000000 243.1079  84.2563  2.00551286 80636
GPS BIIR-10 (PRN 22)    
1 28129U 03058A   14090.38548722 -.00000022  00000-0  00000+0 0   749
2 28129  55.0005 210.0090 0000000 242.3929  44.7666  2.00556623 75332
GPS BIIR-11 (PRN 19)    
1 28190U 04009A   14090.08713935  .00000009  00000-0  00000+0 0   756
2 28190  55.0091  87.0001 0000000  22.1704  85.4759  2.00572758 73506
GPS BIIR-12 (PRN 23)    
1 28361U 04023A   14090.18942513 -.00000034  00000-0  00000+0 0  8891
2 28361  55.0011 271.0089 0000000 200.8348 137.8762  2.00575737 71583
GPS BIIR-13 (PRN 02)    
1 28474U 04045A   14089.32795956  .00000031  00000-0  00000+0 0  7773
2 28474  55.0084 145.0076 0000000 220.1854 213.2752  2.00573812 68938
GPS BIIRM-1 (PRN 17)    
1 28874U 05038A   14089.74857730  .00000008  00000-0  00000+0 0   288
2 28874  55.0032  87.0020 0000000 239.8428 242.5996  2.00575857 62347
GPS BIIRM-2 (PRN 31)    
1 29486U 06042A   14089.57954098 -.00000064  00000-0  00000+0 0  4388
2 29486  55.0023 326.0076 0000000 322.2770 318.3008  2.00548936 55051
GPS BIIRM-3 (PRN 12)    
1 29601U 06052A   14090.41474069 -.00000082  00000-0  00000+0 0  2555
2 29601  55.0087  30.0064 0000000  19.5381 186.8875  2.00567312 53987
GPS BIIRM-4 (PRN 15)    
1 32260U 07047A   14089.93033124 -.00000035  00000-0  00000+0 0  1729
2 32260  55.0085 271.0052 0000000  13.4114 338.9455  2.00563717 47367
GPS BIIRM-5 (PRN 29)    
1 32384U 07062A   14090.50486215  .00000001  00000-0  00000+0 0  2016
2 32384  55.0050  87.0081 0000000 302.2803 237.3927  2.00557636 46102
GPS BIIRM-6 (PRN 07)    
1 32711U 08012A   14089.85435175 -.00000066  00000-0  10000-3 0  9521
2 32711  55.0087 326.0099 0000000 199.4393 160.3366  2.00567476 44300
GPS BIIRM-8 (PRN 05)    
1 35752U 09043A   14090.46356541 -.00000020  00000-0  00000+0 0  7198
2 35752  55.0061 210.0034 0000000  15.3813  89.6604  2.00575706 33889
GPS BIIF-1  (PRN 25)    
1 36585U 10022A   14090.29117201 -.00000085  00000-0  00000+0 0  5280
2 36585  55.0030  30.0079 0000000  32.9140  53.7845  2.00569229 28139
GPS BIIF-2  (PRN 01)    
1 37753U 11036A   14090.45106396  .00000028  00000-0  00000+0 0  9948
2 37753  55.0083 145.0058 0000000  13.6266 274.4811  2.00562687 19819
GPS BIIF-3  (PRN 24)    
1 38833U 12053A   14089.53472050 -.00000064  00000-0  00000+0 0  5428
2 38833  55.0069 326.0016 0000000  11.0161 349.0771  2.00556027 10867
GPS BIIF-4  (PRN 27)    
1 39166U 13023A   14089.39333640  .00000008  00000-0  10000-3 0  3162
2 39166  55.0094  87.0082 0000000 348.3412  11.6525  2.00563754  6384
GPS BIIF-5  (PRN 30)    
1 39533U 14008A   14089.88945055 -.00000071  00000-0  00000+0 0   520
2 39533  55.0099 326.0064 0000000 189.2779 170.7650  2.00558400   763
